NORAD_CAT_ID,OBJECT_NAME,OBJECT_TYPE,EPOCH,MEAN_MOTION,ECCENTRICITY,INCLINATION,RA_OF_ASC_NODE,ARG_OF_PERICENTER,MEAN_ANOMALY,BSTAR,MEAN_MOTION_DOT,MEAN_MOTION_DDOT,TLE_LINE0,TLE_LINE1,TLE_LINE2,SEMIMAJOR_AXIS,PERIOD,APOGEE,PERIGEE,DECAYED
51998.0,STARLINK-3618,PAYLOAD,2023-03-16 12:18:11,15.08819873,0.0002695,53.208,228.6234,102.1054,258.024,0.00079292,0.00012347,0.0,0 STARLINK-3618,1 51998U 22025AU  23075.51263190  .00012347  00000-0  79292-3 0  9996,2 51998  53.2080 228.6234 0002695 102.1054 258.0240 15.08819873 58008,6917.942,95.439,541.671,537.943,0.0
51998.0,STARLINK-3618,PAYLOAD,2023-03-16 20:15:07,15.0883017,0.0001325,53.2138,227.1398,94.8814,265.233,0.0013019,0.00020487,0.0,0 STARLINK-3618,1 51998U 22025AU  23075.84383424  .00020487  00000-0  13019-2 0  9993,2 51998  53.2138 227.1398 0001325  94.8814 265.2330 15.08830170 56547,6917.91,95.438,540.692,538.859,0.0
51998.0,STARLINK-3618,PAYLOAD,2023-03-17 08:58:12,15.08827195,0.0001412,53.2154,224.7613,100.5745,259.5406,0.00039499,6.002e-05,0.0,0 STARLINK-3618,1 51998U 22025AU  23076.37375962  .00006002  00000-0  39499-3 0  9998,2 51998  53.2154 224.7613 0001412 100.5745 259.5406 15.08827195 58133,6917.92,95.438,540.761,538.808,0.0
51998.0,STARLINK-3618,PAYLOAD,2023-03-17 12:08:59,15.08821828,0.0001413,53.2149,224.1663,96.2807,263.8346,0.00080227,0.00012497,0.0,0 STARLINK-3618,1 51998U 22025AU  23076.50624344  .00012497  00000-0  80227-3 0  9994,2 51998  53.2149 224.1663 0001413  96.2807 263.8346 15.08821828 56649,6917.936,95.439,540.778,538.823,0.0
51998.0,STARLINK-3618,PAYLOAD,2023-03-17 16:55:08,15.08833522,0.0001322,53.2149,223.2753,83.4751,276.6392,0.00052903,8.14e-05,0.0,0 STARLINK-3618,1 51998U 22025AU  23076.70496021  .00008140  00000-0  52903-3 0  9995,2 51998  53.2149 223.2753 0001322  83.4751 276.6392 15.08833522 56674,6917.9,95.438,540.68,538.851,0.0
51998.0,STARLINK-3618,PAYLOAD,2023-03-18 02:27:27,15.08846188,0.0001041,53.2136,221.4889,74.6983,285.4124,0.00054051,8.326e-05,0.0,0 STARLINK-3618,1 51998U 22025AU  23077.10239706  .00008326  00000-0  54051-3 0  9997,2 51998  53.2136 221.4889 0001041  74.6983 285.4124 15.08846188 58245,6917.861,95.437,540.447,539.006,0.0
51998.0,STARLINK-3618,PAYLOAD,2023-03-18 18:21:17,15.08861278,0.0001105,53.214,218.5157,87.9338,272.1781,0.00066288,0.00010284,0.0,0 STARLINK-3618,1 51998U 22025AU  23077.76479025  .00010284  00000-0  66288-3 0  9990,2 51998  53.2140 218.5157 0001105  87.9338 272.1781 15.08861278 56839,6917.815,95.436,540.445,538.916,0.0
51998.0,STARLINK-3618,PAYLOAD,2023-03-19 02:18:13,15.08847652,0.000105,53.2148,217.0289,88.1544,271.9569,0.00012427,1.691e-05,0.0,0 STARLINK-3618,1 51998U 22025AU  23078.09599123  .00001691  00000-0  12427-3 0  9997,2 51998  53.2148 217.0289 0001050  88.1544 271.9569 15.08847652 58392,6917.857,95.437,540.448,538.996,0.0
51998.0,STARLINK-3618,PAYLOAD,2023-03-19 13:25:55,15.08848912,0.0001375,53.215,214.9488,83.5248,276.5901,0.00017121,2.439e-05,0.0,0 STARLINK-3618,1 51998U 22025AU  23078.55967155  .00002439  00000-0  17121-3 0  9999,2 51998  53.2150 214.9488 0001375  83.5248 276.5901 15.08848912 56953,6917.853,95.437,540.669,538.767,0.0
51998.0,STARLINK-3618,PAYLOAD,2023-03-19 18:12:04,15.08853763,0.0001352,53.215,214.0555,81.3699,278.7446,0.0002541,3.76e-05,0.0,0 STARLINK-3618,1 51998U 22025AU  23078.75838869  .00003760  00000-0  25410-3 0  9998,2 51998  53.2150 214.0555 0001352  81.3699 278.7446 15.08853763 56981,6917.838,95.437,540.639,538.768,0.0
51998.0,STARLINK-3618,PAYLOAD,2023-03-20 13:16:42,15.08842832,0.0001257,53.2144,210.4876,89.713,270.4006,0.00019662,2.843e-05,0.0,0 STARLINK-3618,1 51998U 22025AU  23079.55327029  .00002843  00000-0  19662-3 0  9991,2 51998  53.2144 210.4876 0001257  89.7130 270.4006 15.08842832 58614,6917.872,95.437,540.606,538.867,0.0
51998.0,STARLINK-3618,PAYLOAD,2023-03-20 14:52:05,15.08844322,0.0001265,53.2146,210.1895,94.1717,265.9419,0.00025047,3.701e-05,0.0,0 STARLINK-3618,1 51998U 22025AU  23079.61951034  .00003701  00000-0  25047-3 0  9995,2 51998  53.2146 210.1895 0001265  94.1717 265.9419 15.08844322 57111,6917.867,95.437,540.607,538.857,0.0
51998.0,STARLINK-3618,PAYLOAD,2023-03-21 08:21:20,15.08847184,0.0001538,53.2159,206.9177,85.6107,274.506,0.00026686,3.962e-05,0.0,0 STARLINK-3618,1 51998U 22025AU  23080.34814961  .00003962  00000-0  26686-3 0  9993,2 51998  53.2159 206.9177 0001538  85.6107 274.5060 15.08847184 57221,6917.858,95.437,540.787,538.659,0.0
51998.0,STARLINK-3618,PAYLOAD,2023-03-21 13:07:29,15.08850027,0.0001529,53.2146,206.0273,78.7154,281.401,0.00043159,6.589e-05,0.0,0 STARLINK-3618,1 51998U 22025AU  23080.54686859  .00006589  00000-0  43159-3 0  9990,2 51998  53.2146 206.0273 0001529  78.7154 281.4010 15.08850027 57255,6917.85,95.437,540.772,538.657,0.0
51998.0,STARLINK-3618,PAYLOAD,2023-03-22 11:22:53,15.08837884,0.0001607,53.2148,201.8653,72.6032,287.5136,5.8267e-05,6.39e-06,0.0,0 STARLINK-3618,1 51998U 22025AU  23081.47423298  .00000639  00000-0  58267-4 0  9996,2 51998  53.2148 201.8653 0001607  72.6032 287.5136 15.08837884 58902,6917.887,95.438,540.864,538.64,0.0
51998.0,STARLINK-3618,PAYLOAD,2023-03-22 17:44:25,15.08848897,0.0001319,53.2161,200.6714,97.2759,262.8383,8.8401e-05,1.12e-05,0.0,0 STARLINK-3618,1 51998U 22025AU  23081.73918592  .00001120  00000-0  88401-4 0  9990,2 51998  53.2161 200.6714 0001319  97.2759 262.8383 15.08848897 58941,6917.853,95.437,540.631,538.806,0.0
51998.0,STARLINK-3618,PAYLOAD,2023-03-23 11:13:40,15.08835914,0.0001577,53.2144,197.4047,64.6933,295.4222,7.7766e-06,-1.64e-06,0.0,0 STARLINK-3618,1 51998U 22025AU  23082.46783546 -.00000164  00000-0  77766-5 0  9991,2 51998  53.2144 197.4047 0001577  64.6933 295.4222 15.08835914 59055,6917.893,95.438,540.849,538.667,0.0
51998.0,STARLINK-3618,PAYLOAD,2023-03-23 14:24:26,15.08843162,0.0001431,53.2152,196.8091,60.0486,300.0648,2.0649e-05,4.1e-07,0.0,0 STARLINK-3618,1 51998U 22025AU  23082.60031219  .00000041  00000-0  20649-4 0  9990,2 51998  53.2152 196.8091 0001431  60.0486 300.0648 15.08843162 57561,6917.871,95.437,540.726,538.746,0.0
51998.0,STARLINK-3618,PAYLOAD,2023-03-24 12:39:48,15.08895982,0.0001444,53.2156,192.6459,93.1913,266.9245,0.00095263,0.00014929,0.0,0 STARLINK-3618,1 51998U 22025AU  23083.52764370  .00014929  00000-0  95263-3 0  9996,2 51998  53.2156 192.6459 0001444  93.1913 266.9245 15.08895982 59217,6917.709,95.434,540.573,538.575,0.0
51998.0,STARLINK-3618,PAYLOAD,2023-03-24 15:50:34,15.08901932,0.000176,53.2157,192.0498,105.9503,254.1683,0.0010202,0.00016013,0.0,0 STARLINK-3618,1 51998U 22025AU  23083.66011754  .00016013  00000-0  10202-2 0  9997,2 51998  53.2157 192.0498 0001760 105.9503 254.1683 15.08901932 57725,6917.691,95.434,540.774,538.339,0.0
51998.0,STARLINK-3618,PAYLOAD,2023-03-25 10:55:15,15.08804249,0.0001399,53.2152,188.4779,109.7645,250.3498,-0.0007613,-0.00012372,0.0,0 STARLINK-3618,1 51998U 22025AU  23084.45503785 -.00012372  00000-0 -76130-3 0  9994,2 51998  53.2152 188.4779 0001399 109.7645 250.3498 15.08804249 59354,6917.99,95.44,540.822,538.887,0.0
51998.0,STARLINK-3618,PAYLOAD,2023-03-25 15:41:25,15.08790864,0.0001279,53.215,187.5885,98.1759,261.9378,-0.00089956,-0.00014556,0.0,0 STARLINK-3618,1 51998U 22025AU  23084.65376947 -.00014556  00000-0 -89956-3 0  9990,2 51998  53.2150 187.5885 0001279  98.1759 261.9378 15.08790864 59389,6918.031,95.441,540.78,539.011,0.0
51998.0,STARLINK-3618,PAYLOAD,2023-03-25 23:38:21,15.08801381,0.0001349,53.2156,186.1049,98.3396,261.7749,-0.00051789,-8.512e-05,0.0,0 STARLINK-3618,1 51998U 22025AU  23084.98497052 -.00008512  00000-0 -51789-3 0  9995,2 51998  53.2156 186.1049 0001349  98.3396 261.7749 15.08801381 59432,6917.998,95.44,540.797,538.93,0.0
51998.0,STARLINK-3618,PAYLOAD,2023-03-26 12:21:26,15.08836584,0.0001595,53.2159,183.7271,93.7846,266.3328,-0.00017624,-3.092e-05,0.0,0 STARLINK-3618,1 51998U 22025AU  23085.51488606 -.00003092  00000-0 -17624-3 0  9998,2 51998  53.2159 183.7271 0001595  93.7846 266.3328 15.08836584 59513,6917.891,95.438,540.859,538.652,0.0
51998.0,STARLINK-3618,PAYLOAD,2023-03-26 18:42:58,15.08849547,0.0001281,53.2143,182.5344,107.7408,252.3724,0.00012399,1.686e-05,0.0,0 STARLINK-3618,1 51998U 22025AU  23085.77984152  .00001686  00000-0  12399-3 0  9992,2 51998  53.2143 182.5344 0001281 107.7408 252.3724 15.08849547 59558,6917.851,95.437,540.602,538.83,0.0
51998.0,STARLINK-3618,PAYLOAD,2023-03-27 10:36:50,15.08841918,0.0001431,53.2156,179.5636,93.6516,266.4639,0.00086871,0.00013565,0.0,0 STARLINK-3618,1 51998U 22025AU  23086.44225316  .00013565  00000-0  86871-3 0  9992,2 51998  53.2156 179.5636 0001431  93.6516 266.4639 15.08841918 59658,6917.875,95.437,540.729,538.75,0.0
51998.0,STARLINK-3618,PAYLOAD,2023-03-27 13:47:36,15.0884958,0.000146,53.2155,178.9689,91.5159,268.6001,0.00089832,0.00014041,0.0,0 STARLINK-3618,1 51998U 22025AU  23086.57472897  .00014041  00000-0  89832-3 0  9994,2 51998  53.2155 178.9689 0001460  91.5159 268.6001 15.08849580 58165,6917.851,95.437,540.726,538.706,0.0
51998.0,STARLINK-3618,PAYLOAD,2023-03-27 15:22:59,15.08859715,0.0001243,53.2153,178.6682,93.0719,267.0416,0.00098958,0.00015505,0.0,0 STARLINK-3618,1 51998U 22025AU  23086.64096277  .00015505  00000-0  98958-3 0  9991,2 51998  53.2153 178.6682 0001243  93.0719 267.0416 15.08859715 59683,6917.82,95.436,540.545,538.825,0.0
51998.0,STARLINK-3618,PAYLOAD,2023-03-27 23:19:55,15.08843818,0.0001711,53.2152,177.1845,74.4115,285.7066,0.00055483,8.554e-05,0.0,0 STARLINK-3618,1 51998U 22025AU  23086.97217138  .00008554  00000-0  55483-3 0  9990,2 51998  53.2152 177.1845 0001711  74.4115 285.7066 15.08843818 59731,6917.869,95.437,540.917,538.55,0.0
51998.0,STARLINK-3618,PAYLOAD,2023-03-28 10:27:36,15.08857231,0.0001698,53.215,175.1028,72.1337,287.984,0.00020355,2.954e-05,0.0,0 STARLINK-3618,1 51998U 22025AU  23087.43584056  .00002954  00000-0  20355-3 0  9996,2 51998  53.2150 175.1028 0001698  72.1337 287.9840 15.08857231 59801,6917.828,95.436,540.867,538.518,0.0
